NORAD_CAT_ID,OBJECT_NAME,OBJECT_TYPE,EPOCH,MEAN_MOTION,ECCENTRICITY,INCLINATION,RA_OF_ASC_NODE,ARG_OF_PERICENTER,MEAN_ANOMALY,BSTAR,MEAN_MOTION_DOT,MEAN_MOTION_DDOT,TLE_LINE0,TLE_LINE1,TLE_LINE2,SEMIMAJOR_AXIS,PERIOD,APOGEE,PERIGEE,DECAYED
55400.0,STARLINK-5632,PAYLOAD,2024-03-30 06:55:32,14.98318373,0.0002794,70.0015,53.1271,270.0547,90.0292,-0.00011354,-1.447e-05,0.0,0 STARLINK-5632,1 55400U 23014K   24090.28856825 -.00001447  00000-0 -11354-3 0  9998,2 55400  70.0015  53.1271 0002794 270.0547  90.0292 14.98318373 65791,6950.229,96.108,574.036,570.152,0.0
55400.0,STARLINK-5632,PAYLOAD,2024-03-30 21:20:43,14.9833626,0.0002697,70.0013,51.6124,271.4255,88.6595,-0.00012463,-1.58e-05,0.0,0 STARLINK-5632,1 55400U 23014K   24090.88939777 -.00001580  00000-0 -12463-3 0  9992,2 55400  70.0013  51.6124 0002697 271.4255  88.6595 14.98336260 64942,6950.174,96.107,573.913,570.164,0.0
55400.0,STARLINK-5632,PAYLOAD,2024-03-30 22:56:51,14.98332573,0.0002957,70.001,51.4418,270.8793,89.2028,-5.2146e-05,-7.15e-06,0.0,0 STARLINK-5632,1 55400U 23014K   24090.95615721 -.00000715  00000-0 -52146-4 0  9992,2 55400  70.0010  51.4418 0002957 270.8793  89.2028 14.98332573 65898,6950.185,96.107,574.105,569.995,0.0
55400.0,STARLINK-5632,PAYLOAD,2024-03-31 06:57:31,14.9833747,0.0002885,70.0014,50.602,272.3419,87.741,-3.7278e-06,-1.37e-06,0.0,0 STARLINK-5632,1 55400U 23014K   24091.28995231 -.00000137  00000-0 -37278-5 0  9994,2 55400  70.0014  50.6020 0002885 272.3419  87.7410 14.98337470 65949,6950.17,96.107,574.04,570.03,0.0
55400.0,STARLINK-5632,PAYLOAD,2024-03-31 21:22:46,14.98304086,0.0002293,70.0009,49.0855,281.3873,78.7028,1.6367e-05,1.02e-06,0.0,0 STARLINK-5632,1 55400U 23014K   24091.89081913  .00000102  00000-0  16367-4 0  9999,2 55400  70.0009  49.0855 0002293 281.3873  78.7028 14.98304086 65096,6950.273,96.109,573.732,570.544,0.0
55400.0,STARLINK-5632,PAYLOAD,2024-04-01 06:59:35,14.9830723,0.0002973,70.0008,48.0747,273.3889,86.693,-1.3756e-05,-2.57e-06,0.0,0 STARLINK-5632,1 55400U 23014K   24092.29138360 -.00000257  00000-0 -13756-4 0  9995,2 55400  70.0008  48.0747 0002973 273.3889  86.6930 14.98307230 66092,6950.263,96.108,574.195,570.062,0.0
55400.0,STARLINK-5632,PAYLOAD,2024-04-02 03:49:18,14.9833802,0.0003169,70.0006,45.8874,273.453,86.6266,9.9448e-05,1.094e-05,0.0,0 STARLINK-5632,1 55400U 23014K   24093.15924550  .00001094  00000-0  99448-4 0  9995,2 55400  70.0006  45.8874 0003169 273.4530  86.6266 14.98338020 65281,6950.168,96.106,574.236,569.831,0.0
55400.0,STARLINK-5632,PAYLOAD,2024-04-02 13:26:06,14.98338991,0.000268,70.0016,44.8784,269.5325,90.5527,0.00010541,1.165e-05,0.0,0 STARLINK-5632,1 55400U 23014K   24093.55980324  .00001165  00000-0  10541-3 0  9995,2 55400  70.0016  44.8784 0002680 269.5325  90.5527 14.98338991 66288,6950.165,96.106,573.893,570.167,0.0
55400.0,STARLINK-5632,PAYLOAD,2024-04-02 21:26:47,14.98326835,0.0002773,70.0012,44.0354,275.4069,84.6773,0.00043133,5.057e-05,0.0,0 STARLINK-5632,1 55400U 23014K   24093.89360204  .00005057  00000-0  43133-3 0  9998,2 55400  70.0012  44.0354 0002773 275.4069  84.6773 14.98326835 66330,6950.203,96.107,573.995,570.14,0.0
55400.0,STARLINK-5632,PAYLOAD,2024-04-03 07:03:35,14.98331928,0.0002681,70.0011,43.0252,271.7992,88.286,0.00042625,4.997e-05,0.0,0 STARLINK-5632,1 55400U 23014K   24094.29415882  .00004997  00000-0  42625-3 0  9993,2 55400  70.0011  43.0252 0002681 271.7992  88.2860 14.98331928 65455,6950.187,96.107,573.915,570.189,0.0
55400.0,STARLINK-5632,PAYLOAD,2024-04-03 13:28:07,14.98376628,0.0002383,70.0033,42.353,277.946,82.1429,-0.00063107,-7.623e-05,0.0,0 STARLINK-5632,1 55400U 23014K   24094.56119325 -.00007623  00000-0 -63107-3 0  9995,2 55400  70.0033  42.3530 0002383 277.9460  82.1429 14.98376628 66436,6950.049,96.104,573.57,570.258,0.0
55400.0,STARLINK-5632,PAYLOAD,2024-04-04 03:53:20,14.98334057,0.0002915,70.0011,40.8378,269.4596,90.6229,-0.00013074,-1.653e-05,0.0,0 STARLINK-5632,1 55400U 23014K   24095.16204689 -.00001653  00000-0 -13074-3 0  9995,2 55400  70.0011  40.8378 0002915 269.4596  90.6229 14.98334057 65589,6950.18,96.107,574.071,570.019,0.0
55400.0,STARLINK-5632,PAYLOAD,2024-04-04 13:30:08,14.98337181,0.0002951,70.0011,39.828,269.7455,90.3366,-0.00012066,-1.533e-05,0.0,0 STARLINK-5632,1 55400U 23014K   24095.56260266 -.00001533  00000-0 -12066-3 0  9999,2 55400  70.0011  39.8280 0002951 269.7455  90.3366 14.98337181 66587,6950.171,96.107,574.087,569.985,0.0
55400.0,STARLINK-5632,PAYLOAD,2024-04-04 19:54:40,14.98339402,0.0002887,70.0012,39.1551,267.3492,92.7337,-7.4528e-05,-9.82e-06,0.0,0 STARLINK-5632,1 55400U 23014K   24095.82963873 -.00000982  00000-0 -74528-4 0  9991,2 55400  70.0012  39.1551 0002887 267.3492  92.7337 14.98339402 65687,6950.164,96.106,574.035,570.022,0.0
55400.0,STARLINK-5632,PAYLOAD,2024-04-04 21:30:48,14.9834214,0.0002793,70.0014,38.9872,266.6189,93.4651,-6.8251e-05,-9.07e-06,0.0,0 STARLINK-5632,1 55400U 23014K   24095.89639661 -.00000907  00000-0 -68251-4 0  9996,2 55400  70.0014  38.9872 0002793 266.6189  93.4651 14.98342140 66639,6950.155,96.106,573.962,570.079,0.0
55400.0,STARLINK-5632,PAYLOAD,2024-04-05 13:32:08,14.98341959,0.0002949,70.0018,37.3027,275.7094,84.3729,-8.8259e-05,-1.146e-05,0.0,0 STARLINK-5632,1 55400U 23014K   24096.56399272 -.00001146  00000-0 -88259-4 0  9998,2 55400  70.0018  37.3027 0002949 275.7094  84.3729 14.98341959 66730,6950.156,96.106,574.071,569.971,0.0
55400.0,STARLINK-5632,PAYLOAD,2024-04-05 21:32:49,14.9832752,0.0002977,70.0012,36.4613,270.5274,89.5544,8.2677e-05,8.94e-06,0.0,0 STARLINK-5632,1 55400U 23014K   24096.89779622  .00000894  00000-0  82677-4 0  9990,2 55400  70.0012  36.4613 0002977 270.5274  89.5544 14.98327520 66784,6950.201,96.107,574.135,569.996,0.0
55400.0,STARLINK-5632,PAYLOAD,2024-04-06 03:57:21,14.98329899,0.0002986,70.001,35.7869,268.3754,91.7063,6.4849e-05,6.81e-06,0.0,0 STARLINK-5632,1 55400U 23014K   24097.16483518  .00000681  00000-0  64849-4 0  9992,2 55400  70.0010  35.7869 0002986 268.3754  91.7063 14.98329899 65887,6950.193,96.107,574.134,569.983,0.0
55400.0,STARLINK-5632,PAYLOAD,2024-04-06 13:34:10,14.98328822,0.0002888,70.0014,34.778,270.2212,89.8616,1.6838e-05,1.08e-06,0.0,0 STARLINK-5632,1 55400U 23014K   24097.56539730  .00000108  00000-0  16838-4 0  9993,2 55400  70.0014  34.7780 0002888 270.2212  89.8616 14.98328822 66882,6950.197,96.107,574.069,570.054,0.0
55400.0,STARLINK-5632,PAYLOAD,2024-04-07 05:35:30,14.98331769,0.0002831,70.0022,33.0954,273.4142,86.6693,-5.48e-06,-1.58e-06,0.0,0 STARLINK-5632,1 55400U 23014K   24098.23299659 -.00000158  00000-0 -54800-5 0  9990,2 55400  70.0022  33.0954 0002831 273.4142  86.6693 14.98331769 66986,6950.187,96.107,574.02,570.085,0.0
55400.0,STARLINK-5632,PAYLOAD,2024-04-07 21:36:51,14.98328979,0.0002891,70.0014,31.4116,270.1799,89.9029,2.6549e-05,2.24e-06,0.0,0 STARLINK-5632,1 55400U 23014K   24098.90059590  .00000224  00000-0  26549-4 0  9992,2 55400  70.0014  31.4116 0002891 270.1799  89.9029 14.98328979 67087,6950.196,96.107,574.07,570.052,0.0
55400.0,STARLINK-5632,PAYLOAD,2024-04-08 04:01:23,14.98330993,0.000276,70.0013,30.7389,266.7035,93.3808,3.4951e-05,3.24e-06,0.0,0 STARLINK-5632,1 55400U 23014K   24099.16763449  .00000324  00000-0  34951-4 0  9993,2 55400  70.0013  30.7389 0002760 266.7035  93.3808 14.98330993 66182,6950.19,96.107,573.973,570.137,0.0
55400.0,STARLINK-5632,PAYLOAD,2024-04-08 12:02:03,14.98333733,0.0002768,70.0016,29.8975,269.418,90.6662,-3.7275e-05,-5.38e-06,0.0,0 STARLINK-5632,1 55400U 23014K   24099.50143428 -.00000538  00000-0 -37275-4 0  9991,2 55400  70.0016  29.8975 0002768 269.4180  90.6662 14.98333733 67177,6950.181,96.107,573.97,570.123,0.0
55400.0,STARLINK-5632,PAYLOAD,2024-04-08 23:15:00,14.98331709,0.0002786,70.001,28.7183,272.0542,88.0298,5.946e-05,6.17e-06,0.0,0 STARLINK-5632,1 55400U 23014K   24099.96875263  .00000617  00000-0  59460-4 0  9996,2 55400  70.0010  28.7183 0002786 272.0542  88.0298 14.98331709 67247,6950.188,96.107,573.989,570.116,0.0
55400.0,STARLINK-5632,PAYLOAD,2024-04-09 04:03:24,14.9832982,0.0003008,70.0002,28.2136,270.3371,89.7443,3.5878e-05,3.35e-06,0.0,0 STARLINK-5632,1 55400U 23014K   24100.16903388  .00000335  00000-0  35878-4 0  9995,2 55400  70.0002  28.2136 0003008 270.3371  89.7443 14.98329820 66330,6950.193,96.107,574.149,569.968,0.0
55400.0,STARLINK-5632,PAYLOAD,2024-04-09 12:04:04,14.98330963,0.0002939,70.0006,27.3717,271.1977,88.8846,-3.7619e-05,-5.42e-06,0.0,0 STARLINK-5632,1 55400U 23014K   24100.50283518 -.00000542  00000-0 -37619-4 0  9996,2 55400  70.0006  27.3717 0002939 271.1977  88.8846 14.98330963 67329,6950.19,96.107,574.098,570.012,0.0
55400.0,STARLINK-5632,PAYLOAD,2024-04-09 20:04:45,14.98327941,0.000282,70.0008,26.5302,271.755,88.3286,-2.8854e-05,-4.37e-06,0.0,0 STARLINK-5632,1 55400U 23014K   24100.83663773 -.00000437  00000-0 -28854-4 0  9991,2 55400  70.0008  26.5302 0002820 271.7550  88.3286 14.98327941 67374,6950.199,96.107,574.024,570.104,0.0
55400.0,STARLINK-5632,PAYLOAD,2024-04-10 04:05:25,14.98333789,0.0002784,70.0009,25.689,270.3942,89.6898,3.9339e-05,3.76e-06,0.0,0 STARLINK-5632,1 55400U 23014K   24101.17043202  .00000376  00000-0  39339-4 0  9998,2 55400  70.0009  25.6890 0002784 270.3942  89.6898 14.98333789 66487,6950.181,96.107,573.981,570.111,0.0
55400.0,STARLINK-5632,PAYLOAD,2024-04-10 12:06:05,14.98340866,0.0002779,70.001,24.847,272.196,87.888,-0.00015167,-1.903e-05,0.0,0 STARLINK-5632,1 55400U 23014K   24101.50423100 -.00001903  00000-0 -15167-3 0  9995,2 55400  70.0010  24.8470 0002779 272.1960  87.8880 14.98340866 67473,6950.159,96.106,573.956,570.093,0.0
55400.0,STARLINK-5632,PAYLOAD,2024-04-10 21:42:54,14.98330535,0.0002726,70.0009,23.8373,268.8296,91.2551,-1.7371e-05,-3e-06,0.0,0 STARLINK-5632,1 55400U 23014K   24101.90479476 -.00000300  00000-0 -17371-4 0  9996,2 55400  70.0009  23.8373 0002726 268.8296  91.2551 14.98330535 67531,6950.191,96.107,573.951,570.162,0.0
